{"type":"FeatureCollection","name":"public_demo_non_sensitive_welfare_service_points","description":"Public-facing, non-sensitive welfare service points only. Residential, shelter, mental-health and other sensitive facilities are withheld from this point layer.","privacy_policy":"public_demo_conservative_v1","features":[{"type":"Feature","geometry":{"type":"Point","coordinates":[126.645932,37.46559]},"properties":{"facility_name":"365인천노인주야간보호센터","district_scope_20260701":"미추홀구","district_assignment_status":"exact_unchanged_district_name","legal_dong_general":"숭의동","category_major":"노인복지","public_service_category":"노인복지 서비스","source_as_of_date_latest":"2025-06-20","public_facility_id":"public_facility_0001"}},{"type":"Feature","geometry":{"type":"Point","coordinates":[126.645858,37.465405]},"properties":{"facility_name":"가연노인복지센터","district_scope_20260701":"미추홀구","district_assignment_status":"exact_unchanged_district_name","legal_dong_general":"숭의동","category_major":"노인복지","public_service_category":"노인복지 서비스","source_as_of_date_latest":"2025-06-20","public_facility_id":"public_facility_0002"}},{"type":"Feature","geometry":{"type":"Point","coordinates":[126.655216,37.478034]},"properties":{"facility_name":"가족사랑재가노인복지센터","district_scope_20260701":"미추홀구","district_assignment_status":"exact_unchanged_district_name","legal_dong_general":"도화동","category_major":"노인복지","public_service_category":"노인복지 서비스","source_as_of_date_latest":"2025-06-20","public_facility_id":"public_facility_0003"}},{"type":"Feature","geometry":{"type":"Point","coordinates":[126.680969,37.4368355]},"properties":{"facility_name":"가희노인복지센터","district_scope_20260701":"미추홀구","district_assignment_status":"exact_unchanged_district_name","legal_dong_general":"문학동","category_major":"노인복지","public_service_category":"노인복지 서비스","source_as_of_date_latest":"2025-06-20","public_facility_id":"public_facility_0004"}},{"type":"Feature","geometry":{"type":"Point","coordinates":[126.6859318,37.4349188]},"properties":{"facility_name":"경인실버복지센터","district_scope_20260701":"미추홀구","district_assignment_status":"exact_unchanged_district_name","legal_dong_general":"문학동","category_major":"노인복지","public_service_category":"노인복지 서비스","source_as_of_date_latest":"2025-06-20","public_facility_id":"public_facility_0005"}},{"type":"Feature","geometry":{"type":"Point","coordinates":[126.647322,37.46313]},"properties":{"facility_name":"그린 재가노인복지센터","district_scope_20260701":"미추홀구","district_assignment_status":"exact_unchanged_district_name","legal_dong_general":"숭의동","category_major":"노인복지","public_service_category":"노인복지 서비스","source_as_of_date_latest":"2025-06-20","public_facility_id":"public_facility_0006"}},{"type":"Feature","geometry":{"type":"Point","coordinates":[126.675483,37.459841]},"properties":{"facility_name":"늘곁에방문요양센터","district_scope_20260701":"미추홀구","district_assignment_status":"exact_unchanged_district_name","legal_dong_general":"도화동","category_major":"노인복지","public_service_category":"노인복지 서비스","source_as_of_date_latest":"2025-06-20","public_facility_id":"public_facility_0007"}},{"type":"Feature","geometry":{"type":"Point","coordinates":[126.674726,37.445792]},"properties":{"facility_name":"늘푸른재가복지센터","district_scope_20260701":"미추홀구","district_assignment_status":"exact_unchanged_district_name","legal_dong_general":"주안동","category_major":"노인복지","public_service_category":"노인복지 서비스","source_as_of_date_latest":"2025-06-20","public_facility_id":"public_facility_0008"}},{"type":"Feature","geometry":{"type":"Point","coordinates":[126.691224,37.448502]},"properties":{"facility_name":"다온노인재가복지센터","district_scope_20260701":"미추홀구","district_assignment_status":"exact_unchanged_district_name","legal_dong_general":"주안동","category_major":"노인복지","public_service_category":"노인복지 서비스","source_as_of_date_latest":"2025-06-20","public_facility_id":"public_facility_0009"}},{"type":"Feature","geometry":{"type":"Point","coordinates":[126.681714,37.451679]},"properties":{"facility_name":"다조아플러스노인복지센터","district_scope_20260701":"미추홀구","district_assignment_status":"exact_unchanged_district_name","legal_dong_general":"주안동","category_major":"노인복지","public_service_category":"노인복지 서비스","source_as_of_date_latest":"2025-06-20","public_facility_id":"public_facility_0010"}},{"type":"Feature","geometry":{"type":"Point","coordinates":[126.664549,37.438773]},"properties":{"facility_name":"대한어머니회재가노인지원서비스센터","district_scope_20260701":"미추홀구","district_assignment_status":"exact_unchanged_district_name","legal_dong_general":"학익동","category_major":"노인복지","public_service_category":"노인복지 서비스","source_as_of_date_latest":"2025-06-20","public_facility_id":"public_facility_0011"}},{"type":"Feature","geometry":{"type":"Point","coordinates":[126.6933794,37.4573123]},"properties":{"facility_name":"두리재가복지센터","district_scope_20260701":"미추홀구","district_assignment_status":"exact_unchanged_district_name","legal_dong_general":"주안동","category_major":"노인복지","public_service_category":"노인복지 서비스","source_as_of_date_latest":"2025-06-20","public_facility_id":"public_facility_0012"}},{"type":"Feature","geometry":{"type":"Point","coordinates":[126.6818823,37.4546542]},"properties":{"facility_name":"두손모아 재가복지센터","district_scope_20260701":"미추홀구","district_assignment_status":"exact_unchanged_district_name","legal_dong_general":"주안동","category_major":"노인복지","public_service_category":"노인복지 서비스","source_as_of_date_latest":"2025-06-20","public_facility_id":"public_facility_0013"}},{"type":"Feature","geometry":{"type":"Point","coordinates":[126.658705,37.464582]},"properties":{"facility_name":"미추홀구 구립 치매전담형 주간보호센터 미추홀돌봄의집","district_scope_20260701":"미추홀구","district_assignment_status":"exact_unchanged_district_name","legal_dong_general":"숭의동","category_major":"노인복지","public_service_category":"노인복지 서비스","source_as_of_date_latest":"2025-06-20","public_facility_id":"public_facility_0014"}},{"type":"Feature","geometry":{"type":"Point","coordinates":[126.6472695,37.4630357]},"properties":{"facility_name":"미추홀돌봄의집","district_scope_20260701":"미추홀구","district_assignment_status":"exact_unchanged_district_name","legal_dong_general":"숭의동","category_major":"노인복지","public_service_category":"노인복지 서비스","source_as_of_date_latest":"2025-06-20","public_facility_id":"public_facility_0015"}},{"type":"Feature","geometry":{"type":"Point","coordinates":[126.683976,37.437815]},"properties":{"facility_name":"미추홀재활장기요양기관","district_scope_20260701":"미추홀구","district_assignment_status":"exact_unchanged_district_name","legal_dong_general":"문학동","category_major":"노인복지","public_service_category":"노인복지 서비스","source_as_of_date_latest":"2025-06-20","public_facility_id":"public_facility_0016"}},{"type":"Feature","geometry":{"type":"Point","coordinates":[126.695698,37.443914]},"properties":{"facility_name":"반석방문요양센터","district_scope_20260701":"미추홀구","district_assignment_status":"exact_unchanged_district_name","legal_dong_general":"관교동","category_major":"노인복지","public_service_category":"노인복지 서비스","source_as_of_date_latest":"2025-06-20","public_facility_id":"public_facility_0017"}},{"type":"Feature","geometry":{"type":"Point","coordinates":[126.6791157,37.4582853]},"properties":{"facility_name":"보람방문요양센터","district_scope_20260701":"미추홀구","district_assignment_status":"exact_unchanged_district_name","legal_dong_general":"주안동","category_major":"노인복지","public_service_category":"노인복지 서비스","source_as_of_date_latest":"2025-06-20","public_facility_id":"public_facility_0018"}},{"type":"Feature","geometry":{"type":"Point","coordinates":[126.6393195,37.4538029]},"properties":{"facility_name":"봄날 복지용구","district_scope_20260701":"미추홀구","district_assignment_status":"exact_unchanged_district_name","legal_dong_general":"용현동","category_major":"노인복지","public_service_category":"노인복지 서비스","source_as_of_date_latest":"2025-06-20","public_facility_id":"public_facility_0019"}},{"type":"Feature","geometry":{"type":"Point","coordinates":[126.667779,37.441952]},"properties":{"facility_name":"봄날재가복지센터","district_scope_20260701":"미추홀구","district_assignment_status":"exact_unchanged_district_name","legal_dong_general":"학익동","category_major":"노인복지","public_service_category":"노인복지 서비스","source_as_of_date_latest":"2025-06-20","public_facility_id":"public_facility_0020"}},{"type":"Feature","geometry":{"type":"Point","coordinates":[126.6649652,37.443515]},"properties":{"facility_name":"비타민 재가노인복지센터","district_scope_20260701":"미추홀구","district_assignment_status":"exact_unchanged_district_name","legal_dong_general":"학익동","category_major":"노인복지","public_service_category":"노인복지 서비스","source_as_of_date_latest":"2025-06-20","public_facility_id":"public_facility_0021"}},{"type":"Feature","geometry":{"type":"Point","coordinates":[126.652395,37.444443]},"properties":{"facility_name":"비타민재가방문요양센터","district_scope_20260701":"미추홀구","district_assignment_status":"exact_unchanged_district_name","legal_dong_general":"학익동","category_major":"노인복지","public_service_category":"노인복지 서비스","source_as_of_date_latest":"2025-06-20","public_facility_id":"public_facility_0022"}},{"type":"Feature","geometry":{"type":"Point","coordinates":[126.6839851,37.4547795]},"properties":{"facility_name":"사랑나눔 노인복지센터","district_scope_20260701":"미추홀구","district_assignment_status":"exact_unchanged_district_name","legal_dong_general":"주안동","category_major":"노인복지","public_service_category":"노인복지 서비스","source_as_of_date_latest":"2025-06-20","public_facility_id":"public_facility_0023"}},{"type":"Feature","geometry":{"type":"Point","coordinates":[126.672082,37.450523]},"properties":{"facility_name":"사미노인복지센터","district_scope_20260701":"미추홀구","district_assignment_status":"exact_unchanged_district_name","legal_dong_general":"주안동","category_major":"노인복지","public_service_category":"노인복지 서비스","source_as_of_date_latest":"2025-06-20","public_facility_id":"public_facility_0024"}},{"type":"Feature","geometry":{"type":"Point","coordinates":[126.666376,37.451983]},"properties":{"facility_name":"삼성한가족복지센터","district_scope_20260701":"미추홀구","district_assignment_status":"exact_unchanged_district_name","legal_dong_general":"용현동","category_major":"노인복지","public_service_category":"노인복지 서비스","source_as_of_date_latest":"2025-06-20","public_facility_id":"public_facility_0025"}},{"type":"Feature","geometry":{"type":"Point","coordinates":[126.6800618,37.4521777]},"properties":{"facility_name":"새봄재활주야간보호센터","district_scope_20260701":"미추홀구","district_assignment_status":"exact_unchanged_district_name","legal_dong_general":"주안동","category_major":"노인복지","public_service_category":"노인복지 서비스","source_as_of_date_latest":"2025-06-20","public_facility_id":"public_facility_0026"}},{"type":"Feature","geometry":{"type":"Point","coordinates":[126.6734984,37.4445865]},"properties":{"facility_name":"선 재가노인복지센터","district_scope_20260701":"미추홀구","district_assignment_status":"exact_unchanged_district_name","legal_dong_general":"주안동","category_major":"노인복지","public_service_category":"노인복지 서비스","source_as_of_date_latest":"2025-06-20","public_facility_id":"public_facility_0027"}},{"type":"Feature","geometry":{"type":"Point","coordinates":[126.6679019,37.4505915]},"properties":{"facility_name":"성문재가노인복지센터","district_scope_20260701":"미추홀구","district_assignment_status":"exact_unchanged_district_name","legal_dong_general":"주안동","category_major":"노인복지","public_service_category":"노인복지 서비스","source_as_of_date_latest":"2025-06-20","public_facility_id":"public_facility_0028"}},{"type":"Feature","geometry":{"type":"Point","coordinates":[126.6608344,37.4468419]},"properties":{"facility_name":"성운복지용구","district_scope_20260701":"미추홀구","district_assignment_status":"exact_unchanged_district_name","legal_dong_general":"학익동","category_major":"노인복지","public_service_category":"노인복지 서비스","source_as_of_date_latest":"2025-06-20","public_facility_id":"public_facility_0029"}},{"type":"Feature","geometry":{"type":"Point","coordinates":[126.692162,37.45836]},"properties":{"facility_name":"소리노인장기요양기관","district_scope_20260701":"미추홀구","district_assignment_status":"exact_unchanged_district_name","legal_dong_general":"주안동","category_major":"노인복지","public_service_category":"노인복지 서비스","source_as_of_date_latest":"2025-06-20","public_facility_id":"public_facility_0030"}},{"type":"Feature","geometry":{"type":"Point","coordinates":[126.6817304,37.4515278]},"properties":{"facility_name":"수정노인복지센터","district_scope_20260701":"미추홀구","district_assignment_status":"exact_unchanged_district_name","legal_dong_general":"주안동","category_major":"노인복지","public_service_category":"노인복지 서비스","source_as_of_date_latest":"2025-06-20","public_facility_id":"public_facility_0031"}},{"type":"Feature","geometry":{"type":"Point","coordinates":[126.6891204,37.4600541]},"properties":{"facility_name":"신경인재활주간보호센터","district_scope_20260701":"미추홀구","district_assignment_status":"exact_unchanged_district_name","legal_dong_general":"주안동","category_major":"노인복지","public_service_category":"노인복지 서비스","source_as_of_date_latest":"2025-06-20","public_facility_id":"public_facility_0032"}},{"type":"Feature","geometry":{"type":"Point","coordinates":[126.6582643,37.45499]},"properties":{"facility_name":"신기의료기(인천점)","district_scope_20260701":"미추홀구","district_assignment_status":"exact_unchanged_district_name","legal_dong_general":"용현동","category_major":"노인복지","public_service_category":"노인복지 서비스","source_as_of_date_latest":"2025-06-20","public_facility_id":"public_facility_0033"}},{"type":"Feature","geometry":{"type":"Point","coordinates":[126.669356,37.46835]},"properties":{"facility_name":"연사랑노인복지센터","district_scope_20260701":"미추홀구","district_assignment_status":"exact_unchanged_district_name","legal_dong_general":"도화동","category_major":"노인복지","public_service_category":"노인복지 서비스","source_as_of_date_latest":"2025-06-20","public_facility_id":"public_facility_0034"}},{"type":"Feature","geometry":{"type":"Point","coordinates":[126.658197,37.460793]},"properties":{"facility_name":"온누리참빛종합재가노인복지센터","district_scope_20260701":"미추홀구","district_assignment_status":"exact_unchanged_district_name","legal_dong_general":"숭의동","category_major":"노인복지","public_service_category":"노인복지 서비스","source_as_of_date_latest":"2025-06-20","public_facility_id":"public_facility_0035"}},{"type":"Feature","geometry":{"type":"Point","coordinates":[126.6842562,37.4376026]},"properties":{"facility_name":"온맘케어 재가복지센터","district_scope_20260701":"미추홀구","district_assignment_status":"exact_unchanged_district_name","legal_dong_general":"문학동","category_major":"노인복지","public_service_category":"노인복지 서비스","source_as_of_date_latest":"2025-06-20","public_facility_id":"public_facility_0036"}},{"type":"Feature","geometry":{"type":"Point","coordinates":[126.689347,37.449158]},"properties":{"facility_name":"온유재가노인복지센터","district_scope_20260701":"미추홀구","district_assignment_status":"exact_unchanged_district_name","legal_dong_general":"주안동","category_major":"노인복지","public_service_category":"노인복지 서비스","source_as_of_date_latest":"2025-06-20","public_facility_id":"public_facility_0037"}},{"type":"Feature","geometry":{"type":"Point","coordinates":[126.670564,37.442943]},"properties":{"facility_name":"이레재가노인복지센터","district_scope_20260701":"미추홀구","district_assignment_status":"exact_unchanged_district_name","legal_dong_general":"학익동","category_major":"노인복지","public_service_category":"노인복지 서비스","source_as_of_date_latest":"2025-06-20","public_facility_id":"public_facility_0038"}},{"type":"Feature","geometry":{"type":"Point","coordinates":[126.6517815,37.4557156]},"properties":{"facility_name":"이원건강의료기 인천보훈점","district_scope_20260701":"미추홀구","district_assignment_status":"exact_unchanged_district_name","legal_dong_general":"용현동","category_major":"노인복지","public_service_category":"노인복지 서비스","source_as_of_date_latest":"2025-06-20","public_facility_id":"public_facility_0039"}},{"type":"Feature","geometry":{"type":"Point","coordinates":[126.6420936,37.4602852]},"properties":{"facility_name":"인천간호센터","district_scope_20260701":"미추홀구","district_assignment_status":"exact_unchanged_district_name","legal_dong_general":"숭의동","category_major":"노인복지","public_service_category":"노인복지 서비스","source_as_of_date_latest":"2025-06-20","public_facility_id":"public_facility_0040"}},{"type":"Feature","geometry":{"type":"Point","coordinates":[126.667136,37.465206]},"properties":{"facility_name":"인천광역시 사회서비스원 미추홀종합재가센터","district_scope_20260701":"미추홀구","district_assignment_status":"exact_unchanged_district_name","legal_dong_general":"도화동","category_major":"노인복지","public_service_category":"노인복지 서비스","source_as_of_date_latest":"2025-06-20","public_facility_id":"public_facility_0041"}},{"type":"Feature","geometry":{"type":"Point","coordinates":[126.68138,37.439382]},"properties":{"facility_name":"좋은방문요양복지센터","district_scope_20260701":"미추홀구","district_assignment_status":"exact_unchanged_district_name","legal_dong_general":"문학동","category_major":"노인복지","public_service_category":"노인복지 서비스","source_as_of_date_latest":"2025-06-20","public_facility_id":"public_facility_0042"}},{"type":"Feature","geometry":{"type":"Point","coordinates":[126.6365521,37.4559277]},"properties":{"facility_name":"좋은아침간호센터","district_scope_20260701":"미추홀구","district_assignment_status":"exact_unchanged_district_name","legal_dong_general":"용현동","category_major":"노인복지","public_service_category":"노인복지 서비스","source_as_of_date_latest":"2025-06-20","public_facility_id":"public_facility_0043"}},{"type":"Feature","geometry":{"type":"Point","coordinates":[126.656611,37.477723]},"properties":{"facility_name":"좋은아침복지용구","district_scope_20260701":"미추홀구","district_assignment_status":"exact_unchanged_district_name","legal_dong_general":"도화동","category_major":"노인복지","public_service_category":"노인복지 서비스","source_as_of_date_latest":"2025-06-20","public_facility_id":"public_facility_0044"}},{"type":"Feature","geometry":{"type":"Point","coordinates":[126.6888604,37.4503252]},"properties":{"facility_name":"주안愛노인복지센터","district_scope_20260701":"미추홀구","district_assignment_status":"exact_unchanged_district_name","legal_dong_general":"주안동","category_major":"노인복지","public_service_category":"노인복지 서비스","source_as_of_date_latest":"2025-06-20","public_facility_id":"public_facility_0045"}},{"type":"Feature","geometry":{"type":"Point","coordinates":[126.6715905,37.4444864]},"properties":{"facility_name":"즐거운복지센터","district_scope_20260701":"미추홀구","district_assignment_status":"exact_unchanged_district_name","legal_dong_general":"주안동","category_major":"노인복지","public_service_category":"노인복지 서비스","source_as_of_date_latest":"2025-06-20","public_facility_id":"public_facility_0046"}},{"type":"Feature","geometry":{"type":"Point","coordinates":[126.680969,37.467326]},"properties":{"facility_name":"지팡이돌봄복지센터","district_scope_20260701":"미추홀구","district_assignment_status":"exact_unchanged_district_name","legal_dong_general":"주안동","category_major":"노인복지","public_service_category":"노인복지 서비스","source_as_of_date_latest":"2025-06-20","public_facility_id":"public_facility_0047"}},{"type":"Feature","geometry":{"type":"Point","coordinates":[126.684765,37.445996]},"properties":{"facility_name":"카네이션재가복지센터 (주)카네이션토탈케어","district_scope_20260701":"미추홀구","district_assignment_status":"exact_unchanged_district_name","legal_dong_general":"주안동","category_major":"노인복지","public_service_category":"노인복지 서비스","source_as_of_date_latest":"2025-06-20","public_facility_id":"public_facility_0048"}},{"type":"Feature","geometry":{"type":"Point","coordinates":[126.672927,37.443862]},"properties":{"facility_name":"케어네이션 방문요양센터 인천 미추홀점","district_scope_20260701":"미추홀구","district_assignment_status":"exact_unchanged_district_name","legal_dong_general":"학익동","category_major":"노인복지","public_service_category":"노인복지 서비스","source_as_of_date_latest":"2025-06-20","public_facility_id":"public_facility_0049"}},{"type":"Feature","geometry":{"type":"Point","coordinates":[126.647666,37.457836]},"properties":{"facility_name":"케어닥 방문요양돌봄센터 주안파트너점","district_scope_20260701":"미추홀구","district_assignment_status":"exact_unchanged_district_name","legal_dong_general":"용현동","category_major":"노인복지","public_service_category":"노인복지 서비스","source_as_of_date_latest":"2025-06-20","public_facility_id":"public_facility_0050"}},{"type":"Feature","geometry":{"type":"Point","coordinates":[126.6443383,37.4617324]},"properties":{"facility_name":"태양노인주야간보호센터","district_scope_20260701":"미추홀구","district_assignment_status":"exact_unchanged_district_name","legal_dong_general":"숭의동","category_major":"노인복지","public_service_category":"노인복지 서비스","source_as_of_date_latest":"2025-06-20","public_facility_id":"public_facility_0051"}},{"type":"Feature","geometry":{"type":"Point","coordinates":[126.679238,37.443469]},"properties":{"facility_name":"평안재가복지센터","district_scope_20260701":"미추홀구","district_assignment_status":"exact_unchanged_district_name","legal_dong_general":"주안동","category_major":"노인복지","public_service_category":"노인복지 서비스","source_as_of_date_latest":"2025-06-20","public_facility_id":"public_facility_0052"}},{"type":"Feature","geometry":{"type":"Point","coordinates":[126.6908806,37.4446713]},"properties":{"facility_name":"푸른솔재가노인복지센터","district_scope_20260701":"미추홀구","district_assignment_status":"exact_unchanged_district_name","legal_dong_general":"관교동","category_major":"노인복지","public_service_category":"노인복지 서비스","source_as_of_date_latest":"2025-06-20","public_facility_id":"public_facility_0053"}},{"type":"Feature","geometry":{"type":"Point","coordinates":[126.667825,37.4624168]},"properties":{"facility_name":"하림재가복지센터","district_scope_20260701":"미추홀구","district_assignment_status":"exact_unchanged_district_name","legal_dong_general":"도화동","category_major":"노인복지","public_service_category":"노인복지 서비스","source_as_of_date_latest":"2025-06-20","public_facility_id":"public_facility_0054"}},{"type":"Feature","geometry":{"type":"Point","coordinates":[126.693744,37.458236]},"properties":{"facility_name":"한결재가복지센터","district_scope_20260701":"미추홀구","district_assignment_status":"exact_unchanged_district_name","legal_dong_general":"주안동","category_major":"노인복지","public_service_category":"노인복지 서비스","source_as_of_date_latest":"2025-06-20","public_facility_id":"public_facility_0055"}},{"type":"Feature","geometry":{"type":"Point","coordinates":[126.680185,37.452445]},"properties":{"facility_name":"함께가는재가복지센터","district_scope_20260701":"미추홀구","district_assignment_status":"exact_unchanged_district_name","legal_dong_general":"주안동","category_major":"노인복지","public_service_category":"노인복지 서비스","source_as_of_date_latest":"2025-06-20","public_facility_id":"public_facility_0056"}},{"type":"Feature","geometry":{"type":"Point","coordinates":[126.670188,37.455497]},"properties":{"facility_name":"햇살노인복지센터","district_scope_20260701":"미추홀구","district_assignment_status":"exact_unchanged_district_name","legal_dong_general":"주안동","category_major":"노인복지","public_service_category":"노인복지 서비스","source_as_of_date_latest":"2025-06-20","public_facility_id":"public_facility_0057"}},{"type":"Feature","geometry":{"type":"Point","coordinates":[126.644321,37.46195]},"properties":{"facility_name":"행복플러스방문요양센터","district_scope_20260701":"미추홀구","district_assignment_status":"exact_unchanged_district_name","legal_dong_general":"숭의동","category_major":"노인복지","public_service_category":"노인복지 서비스","source_as_of_date_latest":"2025-06-20","public_facility_id":"public_facility_0058"}},{"type":"Feature","geometry":{"type":"Point","coordinates":[126.6524737,37.4442595]},"properties":{"facility_name":"효담재가복지센터","district_scope_20260701":"미추홀구","district_assignment_status":"exact_unchanged_district_name","legal_dong_general":"학익동","category_major":"노인복지","public_service_category":"노인복지 서비스","source_as_of_date_latest":"2025-06-20","public_facility_id":"public_facility_0059"}},{"type":"Feature","geometry":{"type":"Point","coordinates":[126.6572677,37.4626723]},"properties":{"facility_name":"희망재가센터","district_scope_20260701":"미추홀구","district_assignment_status":"exact_unchanged_district_name","legal_dong_general":"숭의동","category_major":"노인복지","public_service_category":"노인복지 서비스","source_as_of_date_latest":"2025-06-20","public_facility_id":"public_facility_0060"}},{"type":"Feature","geometry":{"type":"Point","coordinates":[126.6528618,37.4566921]},"properties":{"facility_name":"보훈복지용구","district_scope_20260701":"미추홀구","district_assignment_status":"exact_unchanged_district_name","legal_dong_general":"용현동","category_major":"노인복지","public_service_category":"복지용구","source_as_of_date_latest":"2026-06-30","public_facility_id":"public_facility_0061"}},{"type":"Feature","geometry":{"type":"Point","coordinates":[126.6884075,37.4582383]},"properties":{"facility_name":"(재활)도울주야간보호센터","district_scope_20260701":"미추홀구","district_assignment_status":"exact_unchanged_district_name","legal_dong_general":"주안동","category_major":"노인복지","public_service_category":"재가·방문 돌봄","source_as_of_date_latest":"2026-06-30","public_facility_id":"public_facility_0062"}},{"type":"Feature","geometry":{"type":"Point","coordinates":[126.6946851,37.4427669]},"properties":{"facility_name":"100세누리 방문요양센터","district_scope_20260701":"미추홀구","district_assignment_status":"exact_unchanged_district_name","legal_dong_general":"관교동","category_major":"노인복지","public_service_category":"재가·방문 돌봄","source_as_of_date_latest":"2026-06-30","public_facility_id":"public_facility_0063"}},{"type":"Feature","geometry":{"type":"Point","coordinates":[126.6938449,37.4580522]},"properties":{"facility_name":"가가호호노인복지센터","district_scope_20260701":"미추홀구","district_assignment_status":"exact_unchanged_district_name","legal_dong_general":"주안동","category_major":"노인복지","public_service_category":"재가·방문 돌봄","source_as_of_date_latest":"2026-06-30","public_facility_id":"public_facility_0064"}},{"type":"Feature","geometry":{"type":"Point","coordinates":[126.665169,37.4516703]},"properties":{"facility_name":"가람노인복지센터","district_scope_20260701":"미추홀구","district_assignment_status":"exact_unchanged_district_name","legal_dong_general":"용현동","category_major":"노인복지","public_service_category":"재가·방문 돌봄","source_as_of_date_latest":"2026-06-30","public_facility_id":"public_facility_0065"}},{"type":"Feature","geometry":{"type":"Point","coordinates":[126.6811632,37.4580182]},"properties":{"facility_name":"가은재가복지센터","district_scope_20260701":"미추홀구","district_assignment_status":"exact_unchanged_district_name","legal_dong_general":"주안동","category_major":"노인복지","public_service_category":"재가·방문 돌봄","source_as_of_date_latest":"2026-06-10","public_facility_id":"public_facility_0066"}},{"type":"Feature","geometry":{"type":"Point","coordinates":[126.6814752,37.4466085]},"properties":{"facility_name":"가히노인복지센터","district_scope_20260701":"미추홀구","district_assignment_status":"exact_unchanged_district_name","legal_dong_general":"주안동","category_major":"노인복지","public_service_category":"재가·방문 돌봄","source_as_of_date_latest":"2026-06-30","public_facility_id":"public_facility_0067"}},{"type":"Feature","geometry":{"type":"Point","coordinates":[126.6755116,37.43927]},"properties":{"facility_name":"건강재활주간보호센터","district_scope_20260701":"미추홀구","district_assignment_status":"exact_unchanged_district_name","legal_dong_general":"학익동","category_major":"노인복지","public_service_category":"재가·방문 돌봄","source_as_of_date_latest":"2026-06-30","public_facility_id":"public_facility_0068"}},{"type":"Feature","geometry":{"type":"Point","coordinates":[126.6663221,37.451863]},"properties":{"facility_name":"고운재가요양센터","district_scope_20260701":"미추홀구","district_assignment_status":"exact_unchanged_district_name","legal_dong_general":"용현동","category_major":"노인복지","public_service_category":"재가·방문 돌봄","source_as_of_date_latest":"2026-06-30","public_facility_id":"public_facility_0069"}},{"type":"Feature","geometry":{"type":"Point","coordinates":[126.6559052,37.4659336]},"properties":{"facility_name":"고은재가복지센터","district_scope_20260701":"미추홀구","district_assignment_status":"exact_unchanged_district_name","legal_dong_general":"숭의동","category_major":"노인복지","public_service_category":"재가·방문 돌봄","source_as_of_date_latest":"2026-06-30","public_facility_id":"public_facility_0070"}},{"type":"Feature","geometry":{"type":"Point","coordinates":[126.6398736,37.4517337]},"properties":{"facility_name":"공감노인복지재가센터","district_scope_20260701":"미추홀구","district_assignment_status":"exact_unchanged_district_name","legal_dong_general":"용현동","category_major":"노인복지","public_service_category":"재가·방문 돌봄","source_as_of_date_latest":"2026-06-30","public_facility_id":"public_facility_0071"}},{"type":"Feature","geometry":{"type":"Point","coordinates":[126.6771877,37.4673168]},"properties":{"facility_name":"공감재가센터","district_scope_20260701":"미추홀구","district_assignment_status":"exact_unchanged_district_name","legal_dong_general":"주안동","category_major":"노인복지","public_service_category":"재가·방문 돌봄","source_as_of_date_latest":"2026-06-10","public_facility_id":"public_facility_0072"}},{"type":"Feature","geometry":{"type":"Point","coordinates":[126.678039,37.4692855]},"properties":{"facility_name":"구구팔팔재가복지센터","district_scope_20260701":"미추홀구","district_assignment_status":"exact_unchanged_district_name","legal_dong_general":"주안동","category_major":"노인복지","public_service_category":"재가·방문 돌봄","source_as_of_date_latest":"2026-06-30","public_facility_id":"public_facility_0073"}},{"type":"Feature","geometry":{"type":"Point","coordinates":[126.6952992,37.4630063]},"properties":{"facility_name":"그린 재가노인복지센터","district_scope_20260701":"미추홀구","district_assignment_status":"exact_unchanged_district_name","legal_dong_general":"주안동","category_major":"노인복지","public_service_category":"재가·방문 돌봄","source_as_of_date_latest":"2026-06-10","public_facility_id":"public_facility_0074"}},{"type":"Feature","geometry":{"type":"Point","coordinates":[126.6497241,37.4608195]},"properties":{"facility_name":"금강방문요양센터","district_scope_20260701":"미추홀구","district_assignment_status":"exact_unchanged_district_name","legal_dong_general":"숭의동","category_major":"노인복지","public_service_category":"재가·방문 돌봄","source_as_of_date_latest":"2026-06-30","public_facility_id":"public_facility_0075"}},{"type":"Feature","geometry":{"type":"Point","coordinates":[126.6675197,37.4652324]},"properties":{"facility_name":"김간호사 재활주간보호 재가복지센터","district_scope_20260701":"미추홀구","district_assignment_status":"exact_unchanged_district_name","legal_dong_general":"도화동","category_major":"노인복지","public_service_category":"재가·방문 돌봄","source_as_of_date_latest":"2026-06-30","public_facility_id":"public_facility_0076"}},{"type":"Feature","geometry":{"type":"Point","coordinates":[126.641142,37.4580735]},"properties":{"facility_name":"나눔과기쁨 노인복지센터","district_scope_20260701":"미추홀구","district_assignment_status":"exact_unchanged_district_name","legal_dong_general":"용현동","category_major":"노인복지","public_service_category":"재가·방문 돌봄","source_as_of_date_latest":"2026-06-30","public_facility_id":"public_facility_0077"}},{"type":"Feature","geometry":{"type":"Point","coordinates":[126.6555412,37.4780798]},"properties":{"facility_name":"나섬재가복지센터","district_scope_20260701":"미추홀구","district_assignment_status":"exact_unchanged_district_name","legal_dong_general":"도화동","category_major":"노인복지","public_service_category":"재가·방문 돌봄","source_as_of_date_latest":"2026-06-30","public_facility_id":"public_facility_0078"}},{"type":"Feature","geometry":{"type":"Point","coordinates":[126.6710362,37.4395336]},"properties":{"facility_name":"대교뉴이프 데이케어센터 인천미추홀센터","district_scope_20260701":"미추홀구","district_assignment_status":"exact_unchanged_district_name","legal_dong_general":"학익동","category_major":"노인복지","public_service_category":"재가·방문 돌봄","source_as_of_date_latest":"2026-06-30","public_facility_id":"public_facility_0079"}},{"type":"Feature","geometry":{"type":"Point","coordinates":[126.6902375,37.4621595]},"properties":{"facility_name":"돌보미재가복지센터","district_scope_20260701":"미추홀구","district_assignment_status":"exact_unchanged_district_name","legal_dong_general":"주안동","category_major":"노인복지","public_service_category":"재가·방문 돌봄","source_as_of_date_latest":"2026-06-30","public_facility_id":"public_facility_0080"}},{"type":"Feature","geometry":{"type":"Point","coordinates":[126.6946851,37.4427669]},"properties":{"facility_name":"두드림노인복지센터","district_scope_20260701":"미추홀구","district_assignment_status":"exact_unchanged_district_name","legal_dong_general":"관교동","category_major":"노인복지","public_service_category":"재가·방문 돌봄","source_as_of_date_latest":"2026-06-30","public_facility_id":"public_facility_0081"}},{"type":"Feature","geometry":{"type":"Point","coordinates":[126.6941699,37.4595043]},"properties":{"facility_name":"디엠디케이 복지센터","district_scope_20260701":"미추홀구","district_assignment_status":"exact_unchanged_district_name","legal_dong_general":"주안동","category_major":"노인복지","public_service_category":"재가·방문 돌봄","source_as_of_date_latest":"2026-06-30","public_facility_id":"public_facility_0082"}},{"type":"Feature","geometry":{"type":"Point","coordinates":[126.6849558,37.4655985]},"properties":{"facility_name":"미추홀재가노인지원서비스센터","district_scope_20260701":"미추홀구","district_assignment_status":"exact_unchanged_district_name","legal_dong_general":"주안동","category_major":"노인복지","public_service_category":"재가·방문 돌봄","source_as_of_date_latest":"2026-06-30","public_facility_id":"public_facility_0083"}},{"type":"Feature","geometry":{"type":"Point","coordinates":[126.6746892,37.446856]},"properties":{"facility_name":"미추홀재가방문요양센터","district_scope_20260701":"미추홀구","district_assignment_status":"exact_unchanged_district_name","legal_dong_general":"주안동","category_major":"노인복지","public_service_category":"재가·방문 돌봄","source_as_of_date_latest":"2026-06-30","public_facility_id":"public_facility_0084"}},{"type":"Feature","geometry":{"type":"Point","coordinates":[126.6931266,37.4434898]},"properties":{"facility_name":"바른방문요양센터","district_scope_20260701":"미추홀구","district_assignment_status":"exact_unchanged_district_name","legal_dong_general":"관교동","category_major":"노인복지","public_service_category":"재가·방문 돌봄","source_as_of_date_latest":"2026-06-30","public_facility_id":"public_facility_0085"}},{"type":"Feature","geometry":{"type":"Point","coordinates":[126.6816113,37.4504253]},"properties":{"facility_name":"백세재가복지센터","district_scope_20260701":"미추홀구","district_assignment_status":"exact_unchanged_district_name","legal_dong_general":"주안동","category_major":"노인복지","public_service_category":"재가·방문 돌봄","source_as_of_date_latest":"2026-06-30","public_facility_id":"public_facility_0086"}},{"type":"Feature","geometry":{"type":"Point","coordinates":[126.6668301,37.4386672]},"properties":{"facility_name":"백암시니어복지센터","district_scope_20260701":"미추홀구","district_assignment_status":"exact_unchanged_district_name","legal_dong_general":"학익동","category_major":"노인복지","public_service_category":"재가·방문 돌봄","source_as_of_date_latest":"2026-06-30","public_facility_id":"public_facility_0087"}},{"type":"Feature","geometry":{"type":"Point","coordinates":[126.6801309,37.4540303]},"properties":{"facility_name":"봄봄재가복지센터","district_scope_20260701":"미추홀구","district_assignment_status":"exact_unchanged_district_name","legal_dong_general":"주안동","category_major":"노인복지","public_service_category":"재가·방문 돌봄","source_as_of_date_latest":"2026-06-30","public_facility_id":"public_facility_0088"}},{"type":"Feature","geometry":{"type":"Point","coordinates":[126.6893248,37.448992]},"properties":{"facility_name":"부모사랑요양센터","district_scope_20260701":"미추홀구","district_assignment_status":"exact_unchanged_district_name","legal_dong_general":"주안동","category_major":"노인복지","public_service_category":"재가·방문 돌봄","source_as_of_date_latest":"2026-06-30","public_facility_id":"public_facility_0089"}},{"type":"Feature","geometry":{"type":"Point","coordinates":[126.6701092,37.4552862]},"properties":{"facility_name":"사랑드림노인복지센터","district_scope_20260701":"미추홀구","district_assignment_status":"exact_unchanged_district_name","legal_dong_general":"주안동","category_major":"노인복지","public_service_category":"재가·방문 돌봄","source_as_of_date_latest":"2026-06-30","public_facility_id":"public_facility_0090"}},{"type":"Feature","geometry":{"type":"Point","coordinates":[126.6512374,37.4570893]},"properties":{"facility_name":"샬롬재가노인복지센터","district_scope_20260701":"미추홀구","district_assignment_status":"exact_unchanged_district_name","legal_dong_general":"용현동","category_major":"노인복지","public_service_category":"재가·방문 돌봄","source_as_of_date_latest":"2026-06-30","public_facility_id":"public_facility_0091"}},{"type":"Feature","geometry":{"type":"Point","coordinates":[126.6791231,37.4448689]},"properties":{"facility_name":"세종재가복지센터","district_scope_20260701":"미추홀구","district_assignment_status":"exact_unchanged_district_name","legal_dong_general":"주안동","category_major":"노인복지","public_service_category":"재가·방문 돌봄","source_as_of_date_latest":"2026-06-30","public_facility_id":"public_facility_0092"}},{"type":"Feature","geometry":{"type":"Point","coordinates":[126.6551518,37.4778933]},"properties":{"facility_name":"소망재가노인복지센터","district_scope_20260701":"미추홀구","district_assignment_status":"exact_unchanged_district_name","legal_dong_general":"도화동","category_major":"노인복지","public_service_category":"재가·방문 돌봄","source_as_of_date_latest":"2026-06-30","public_facility_id":"public_facility_0093"}},{"type":"Feature","geometry":{"type":"Point","coordinates":[126.6711934,37.4671122]},"properties":{"facility_name":"소울노인복지센터","district_scope_20260701":"미추홀구","district_assignment_status":"exact_unchanged_district_name","legal_dong_general":"도화동","category_major":"노인복지","public_service_category":"재가·방문 돌봄","source_as_of_date_latest":"2026-06-30","public_facility_id":"public_facility_0094"}},{"type":"Feature","geometry":{"type":"Point","coordinates":[126.6648821,37.4446338]},"properties":{"facility_name":"수 재가복지센터","district_scope_20260701":"미추홀구","district_assignment_status":"exact_unchanged_district_name","legal_dong_general":"학익동","category_major":"노인복지","public_service_category":"재가·방문 돌봄","source_as_of_date_latest":"2026-06-30","public_facility_id":"public_facility_0095"}},{"type":"Feature","geometry":{"type":"Point","coordinates":[126.6844036,37.4544892]},"properties":{"facility_name":"시온재가장기요양센터","district_scope_20260701":"미추홀구","district_assignment_status":"exact_unchanged_district_name","legal_dong_general":"주안동","category_major":"노인복지","public_service_category":"재가·방문 돌봄","source_as_of_date_latest":"2026-06-30","public_facility_id":"public_facility_0096"}},{"type":"Feature","geometry":{"type":"Point","coordinates":[126.6911718,37.4483267]},"properties":{"facility_name":"시잡인재가복지센터","district_scope_20260701":"미추홀구","district_assignment_status":"exact_unchanged_district_name","legal_dong_general":"주안동","category_major":"노인복지","public_service_category":"재가·방문 돌봄","source_as_of_date_latest":"2026-06-30","public_facility_id":"public_facility_0097"}},{"type":"Feature","geometry":{"type":"Point","coordinates":[126.6869847,37.4578033]},"properties":{"facility_name":"아가페노인복지센터","district_scope_20260701":"미추홀구","district_assignment_status":"exact_unchanged_district_name","legal_dong_general":"주안동","category_major":"노인복지","public_service_category":"재가·방문 돌봄","source_as_of_date_latest":"2026-06-30","public_facility_id":"public_facility_0098"}},{"type":"Feature","geometry":{"type":"Point","coordinates":[126.676332,37.4577887]},"properties":{"facility_name":"아리아케어 방문요양 미추홀 주안센터","district_scope_20260701":"미추홀구","district_assignment_status":"exact_unchanged_district_name","legal_dong_general":"주안동","category_major":"노인복지","public_service_category":"재가·방문 돌봄","source_as_of_date_latest":"2026-06-30","public_facility_id":"public_facility_0099"}},{"type":"Feature","geometry":{"type":"Point","coordinates":[126.6705855,37.4428027]},"properties":{"facility_name":"어르신을부탁해 방문요양센터","district_scope_20260701":"미추홀구","district_assignment_status":"exact_unchanged_district_name","legal_dong_general":"학익동","category_major":"노인복지","public_service_category":"재가·방문 돌봄","source_as_of_date_latest":"2026-06-10","public_facility_id":"public_facility_0100"}},{"type":"Feature","geometry":{"type":"Point","coordinates":[126.681374,37.4392299]},"properties":{"facility_name":"예사랑재가노인복지센터","district_scope_20260701":"미추홀구","district_assignment_status":"exact_unchanged_district_name","legal_dong_general":"문학동","category_major":"노인복지","public_service_category":"재가·방문 돌봄","source_as_of_date_latest":"2026-06-30","public_facility_id":"public_facility_0101"}},{"type":"Feature","geometry":{"type":"Point","coordinates":[126.6476395,37.4577331]},"properties":{"facility_name":"온유한재가복지센터","district_scope_20260701":"미추홀구","district_assignment_status":"exact_unchanged_district_name","legal_dong_general":"용현동","category_major":"노인복지","public_service_category":"재가·방문 돌봄","source_as_of_date_latest":"2026-06-30","public_facility_id":"public_facility_0102"}},{"type":"Feature","geometry":{"type":"Point","coordinates":[126.6383925,37.4593202]},"properties":{"facility_name":"온케어 재가복지센터","district_scope_20260701":"미추홀구","district_assignment_status":"exact_unchanged_district_name","legal_dong_general":"용현동","category_major":"노인복지","public_service_category":"재가·방문 돌봄","source_as_of_date_latest":"2026-06-30","public_facility_id":"public_facility_0103"}},{"type":"Feature","geometry":{"type":"Point","coordinates":[126.682773,37.4494451]},"properties":{"facility_name":"우슬재가노인복지센터","district_scope_20260701":"미추홀구","district_assignment_status":"exact_unchanged_district_name","legal_dong_general":"주안동","category_major":"노인복지","public_service_category":"재가·방문 돌봄","source_as_of_date_latest":"2026-06-30","public_facility_id":"public_facility_0104"}},{"type":"Feature","geometry":{"type":"Point","coordinates":[126.6899169,37.4613215]},"properties":{"facility_name":"이레재가복지센터","district_scope_20260701":"미추홀구","district_assignment_status":"exact_unchanged_district_name","legal_dong_general":"주안동","category_major":"노인복지","public_service_category":"재가·방문 돌봄","source_as_of_date_latest":"2026-06-10","public_facility_id":"public_facility_0105"}},{"type":"Feature","geometry":{"type":"Point","coordinates":[126.6785806,37.4599399]},"properties":{"facility_name":"이음실버케어센터","district_scope_20260701":"미추홀구","district_assignment_status":"exact_unchanged_district_name","legal_dong_general":"주안동","category_major":"노인복지","public_service_category":"재가·방문 돌봄","source_as_of_date_latest":"2026-06-10","public_facility_id":"public_facility_0106"}},{"type":"Feature","geometry":{"type":"Point","coordinates":[126.6365521,37.4559277]},"properties":{"facility_name":"인일휴노인복지센터","district_scope_20260701":"미추홀구","district_assignment_status":"exact_unchanged_district_name","legal_dong_general":"용현동","category_major":"노인복지","public_service_category":"재가·방문 돌봄","source_as_of_date_latest":"2026-06-30","public_facility_id":"public_facility_0107"}},{"type":"Feature","geometry":{"type":"Point","coordinates":[126.6709999,37.4637304]},"properties":{"facility_name":"인천사회복지센터","district_scope_20260701":"미추홀구","district_assignment_status":"exact_unchanged_district_name","legal_dong_general":"도화동","category_major":"노인복지","public_service_category":"재가·방문 돌봄","source_as_of_date_latest":"2026-06-30","public_facility_id":"public_facility_0108"}},{"type":"Feature","geometry":{"type":"Point","coordinates":[126.656507,37.4775178]},"properties":{"facility_name":"인천어르신재가복지센터","district_scope_20260701":"미추홀구","district_assignment_status":"exact_unchanged_district_name","legal_dong_general":"도화동","category_major":"노인복지","public_service_category":"재가·방문 돌봄","source_as_of_date_latest":"2026-06-30","public_facility_id":"public_facility_0109"}},{"type":"Feature","geometry":{"type":"Point","coordinates":[126.6645458,37.4386323]},"properties":{"facility_name":"인천재가노인지원서비스센터","district_scope_20260701":"미추홀구","district_assignment_status":"exact_unchanged_district_name","legal_dong_general":"학익동","category_major":"노인복지","public_service_category":"재가·방문 돌봄","source_as_of_date_latest":"2026-06-30","public_facility_id":"public_facility_0110"}},{"type":"Feature","geometry":{"type":"Point","coordinates":[126.6791046,37.4433554]},"properties":{"facility_name":"인천통합복지 사회적협동조합","district_scope_20260701":"미추홀구","district_assignment_status":"exact_unchanged_district_name","legal_dong_general":"주안동","category_major":"노인복지","public_service_category":"재가·방문 돌봄","source_as_of_date_latest":"2026-06-30","public_facility_id":"public_facility_0111"}},{"type":"Feature","geometry":{"type":"Point","coordinates":[126.6637945,37.4519864]},"properties":{"facility_name":"인화 재가노인복지센터","district_scope_20260701":"미추홀구","district_assignment_status":"exact_unchanged_district_name","legal_dong_general":"용현동","category_major":"노인복지","public_service_category":"재가·방문 돌봄","source_as_of_date_latest":"2026-06-30","public_facility_id":"public_facility_0112"}},{"type":"Feature","geometry":{"type":"Point","coordinates":[126.6929463,37.4644028]},"properties":{"facility_name":"장수노인복지센터","district_scope_20260701":"미추홀구","district_assignment_status":"exact_unchanged_district_name","legal_dong_general":"주안동","category_major":"노인복지","public_service_category":"재가·방문 돌봄","source_as_of_date_latest":"2026-06-30","public_facility_id":"public_facility_0113"}},{"type":"Feature","geometry":{"type":"Point","coordinates":[126.6715005,37.4491259]},"properties":{"facility_name":"장수재가복지센터","district_scope_20260701":"미추홀구","district_assignment_status":"exact_unchanged_district_name","legal_dong_general":"주안동","category_major":"노인복지","public_service_category":"재가·방문 돌봄","source_as_of_date_latest":"2026-06-30","public_facility_id":"public_facility_0114"}},{"type":"Feature","geometry":{"type":"Point","coordinates":[126.6839496,37.4376273]},"properties":{"facility_name":"정다운복지센터","district_scope_20260701":"미추홀구","district_assignment_status":"exact_unchanged_district_name","legal_dong_general":"문학동","category_major":"노인복지","public_service_category":"재가·방문 돌봄","source_as_of_date_latest":"2026-06-30","public_facility_id":"public_facility_0115"}},{"type":"Feature","geometry":{"type":"Point","coordinates":[126.674722,37.4456372]},"properties":{"facility_name":"정성노인복지센터","district_scope_20260701":"미추홀구","district_assignment_status":"exact_unchanged_district_name","legal_dong_general":"주안동","category_major":"노인복지","public_service_category":"재가·방문 돌봄","source_as_of_date_latest":"2026-06-30","public_facility_id":"public_facility_0116"}},{"type":"Feature","geometry":{"type":"Point","coordinates":[126.6862039,37.4560822]},"properties":{"facility_name":"조은재가복지센터","district_scope_20260701":"미추홀구","district_assignment_status":"exact_unchanged_district_name","legal_dong_general":"주안동","category_major":"노인복지","public_service_category":"재가·방문 돌봄","source_as_of_date_latest":"2026-06-30","public_facility_id":"public_facility_0117"}},{"type":"Feature","geometry":{"type":"Point","coordinates":[126.6840874,37.4391729]},"properties":{"facility_name":"좋은 이웃 재가 복지센터","district_scope_20260701":"미추홀구","district_assignment_status":"exact_unchanged_district_name","legal_dong_general":"문학동","category_major":"노인복지","public_service_category":"재가·방문 돌봄","source_as_of_date_latest":"2026-06-30","public_facility_id":"public_facility_0118"}},{"type":"Feature","geometry":{"type":"Point","coordinates":[126.6828336,37.4532078]},"properties":{"facility_name":"주안돌봄 재가노인복지센터","district_scope_20260701":"미추홀구","district_assignment_status":"exact_unchanged_district_name","legal_dong_general":"주안동","category_major":"노인복지","public_service_category":"재가·방문 돌봄","source_as_of_date_latest":"2026-06-30","public_facility_id":"public_facility_0119"}},{"type":"Feature","geometry":{"type":"Point","coordinates":[126.6877694,37.4570645]},"properties":{"facility_name":"천사랑 방문요양센터","district_scope_20260701":"미추홀구","district_assignment_status":"exact_unchanged_district_name","legal_dong_general":"주안동","category_major":"노인복지","public_service_category":"재가·방문 돌봄","source_as_of_date_latest":"2026-06-30","public_facility_id":"public_facility_0120"}},{"type":"Feature","geometry":{"type":"Point","coordinates":[126.6817327,37.4636608]},"properties":{"facility_name":"카네이션재가복지센터 (주)카네이션토탈케어","district_scope_20260701":"미추홀구","district_assignment_status":"exact_unchanged_district_name","legal_dong_general":"주안동","category_major":"노인복지","public_service_category":"재가·방문 돌봄","source_as_of_date_latest":"2026-06-30","public_facility_id":"public_facility_0121"}},{"type":"Feature","geometry":{"type":"Point","coordinates":[126.6427291,37.4582401]},"properties":{"facility_name":"케어닥 방문요양돌봄센터 용현파트너점","district_scope_20260701":"미추홀구","district_assignment_status":"exact_unchanged_district_name","legal_dong_general":"용현동","category_major":"노인복지","public_service_category":"재가·방문 돌봄","source_as_of_date_latest":"2026-06-30","public_facility_id":"public_facility_0122"}},{"type":"Feature","geometry":{"type":"Point","coordinates":[126.6962105,37.4443521]},"properties":{"facility_name":"팔팔한재가복지센터","district_scope_20260701":"미추홀구","district_assignment_status":"exact_unchanged_district_name","legal_dong_general":"관교동","category_major":"노인복지","public_service_category":"재가·방문 돌봄","source_as_of_date_latest":"2026-06-30","public_facility_id":"public_facility_0123"}},{"type":"Feature","geometry":{"type":"Point","coordinates":[126.6740162,37.4639748]},"properties":{"facility_name":"평화노인복지센터","district_scope_20260701":"미추홀구","district_assignment_status":"exact_unchanged_district_name","legal_dong_general":"주안동","category_major":"노인복지","public_service_category":"재가·방문 돌봄","source_as_of_date_latest":"2026-06-30","public_facility_id":"public_facility_0124"}},{"type":"Feature","geometry":{"type":"Point","coordinates":[126.6681197,37.4546385]},"properties":{"facility_name":"푸름재가노인복지센터","district_scope_20260701":"미추홀구","district_assignment_status":"exact_unchanged_district_name","legal_dong_general":"주안동","category_major":"노인복지","public_service_category":"재가·방문 돌봄","source_as_of_date_latest":"2026-06-30","public_facility_id":"public_facility_0125"}},{"type":"Feature","geometry":{"type":"Point","coordinates":[126.6917229,37.4460685]},"properties":{"facility_name":"하임재가복지센터","district_scope_20260701":"미추홀구","district_assignment_status":"exact_unchanged_district_name","legal_dong_general":"관교동","category_major":"노인복지","public_service_category":"재가·방문 돌봄","source_as_of_date_latest":"2026-06-30","public_facility_id":"public_facility_0126"}},{"type":"Feature","geometry":{"type":"Point","coordinates":[126.6549397,37.4559009]},"properties":{"facility_name":"한마음복지센터","district_scope_20260701":"미추홀구","district_assignment_status":"exact_unchanged_district_name","legal_dong_general":"용현동","category_major":"노인복지","public_service_category":"재가·방문 돌봄","source_as_of_date_latest":"2026-06-30","public_facility_id":"public_facility_0127"}},{"type":"Feature","geometry":{"type":"Point","coordinates":[126.6720633,37.4503158]},"properties":{"facility_name":"한빛재가복지센터","district_scope_20260701":"미추홀구","district_assignment_status":"exact_unchanged_district_name","legal_dong_general":"주안동","category_major":"노인복지","public_service_category":"재가·방문 돌봄","source_as_of_date_latest":"2026-06-30","public_facility_id":"public_facility_0128"}},{"type":"Feature","geometry":{"type":"Point","coordinates":[126.6812778,37.4487681]},"properties":{"facility_name":"한사랑노인복지센터","district_scope_20260701":"미추홀구","district_assignment_status":"exact_unchanged_district_name","legal_dong_general":"주안동","category_major":"노인복지","public_service_category":"재가·방문 돌봄","source_as_of_date_latest":"2026-06-30","public_facility_id":"public_facility_0129"}},{"type":"Feature","geometry":{"type":"Point","coordinates":[126.6511019,37.4646014]},"properties":{"facility_name":"해사랑재가복지센터","district_scope_20260701":"미추홀구","district_assignment_status":"exact_unchanged_district_name","legal_dong_general":"숭의동","category_major":"노인복지","public_service_category":"재가·방문 돌봄","source_as_of_date_latest":"2026-06-10","public_facility_id":"public_facility_0130"}},{"type":"Feature","geometry":{"type":"Point","coordinates":[126.6956246,37.441291]},"properties":{"facility_name":"해찬방문노인복지센터","district_scope_20260701":"미추홀구","district_assignment_status":"exact_unchanged_district_name","legal_dong_general":"관교동","category_major":"노인복지","public_service_category":"재가·방문 돌봄","source_as_of_date_latest":"2026-06-30","public_facility_id":"public_facility_0131"}},{"type":"Feature","geometry":{"type":"Point","coordinates":[126.6949495,37.440937]},"properties":{"facility_name":"햇살재가복지센터","district_scope_20260701":"미추홀구","district_assignment_status":"exact_unchanged_district_name","legal_dong_general":"관교동","category_major":"노인복지","public_service_category":"재가·방문 돌봄","source_as_of_date_latest":"2026-06-30","public_facility_id":"public_facility_0132"}},{"type":"Feature","geometry":{"type":"Point","coordinates":[126.6677391,37.441704]},"properties":{"facility_name":"행복재가노인복지센터","district_scope_20260701":"미추홀구","district_assignment_status":"exact_unchanged_district_name","legal_dong_general":"학익동","category_major":"노인복지","public_service_category":"재가·방문 돌봄","source_as_of_date_latest":"2026-06-30","public_facility_id":"public_facility_0133"}},{"type":"Feature","geometry":{"type":"Point","coordinates":[126.6692532,37.468152]},"properties":{"facility_name":"효방문요양센터","district_scope_20260701":"미추홀구","district_assignment_status":"exact_unchanged_district_name","legal_dong_general":"도화동","category_major":"노인복지","public_service_category":"재가·방문 돌봄","source_as_of_date_latest":"2026-06-30","public_facility_id":"public_facility_0134"}},{"type":"Feature","geometry":{"type":"Point","coordinates":[126.65338,37.4540704]},"properties":{"facility_name":"효신노인복지센터","district_scope_20260701":"미추홀구","district_assignment_status":"exact_unchanged_district_name","legal_dong_general":"용현동","category_major":"노인복지","public_service_category":"재가·방문 돌봄","source_as_of_date_latest":"2026-06-30","public_facility_id":"public_facility_0135"}},{"type":"Feature","geometry":{"type":"Point","coordinates":[126.6814451,37.4450997]},"properties":{"facility_name":"효원 재가복지센터","district_scope_20260701":"미추홀구","district_assignment_status":"exact_unchanged_district_name","legal_dong_general":"주안동","category_major":"노인복지","public_service_category":"재가·방문 돌봄","source_as_of_date_latest":"2026-06-30","public_facility_id":"public_facility_0136"}},{"type":"Feature","geometry":{"type":"Point","coordinates":[126.6370845,37.4515815]},"properties":{"facility_name":"희망나눔재가노인복지센터","district_scope_20260701":"미추홀구","district_assignment_status":"exact_unchanged_district_name","legal_dong_general":"용현동","category_major":"노인복지","public_service_category":"재가·방문 돌봄","source_as_of_date_latest":"2026-06-30","public_facility_id":"public_facility_0137"}},{"type":"Feature","geometry":{"type":"Point","coordinates":[126.6836647,37.4667456]},"properties":{"facility_name":"굿모닝인천 데이케어센터","district_scope_20260701":"미추홀구","district_assignment_status":"exact_unchanged_district_name","legal_dong_general":"주안동","category_major":"노인복지","public_service_category":"주간 돌봄","source_as_of_date_latest":"2026-06-30","public_facility_id":"public_facility_0138"}},{"type":"Feature","geometry":{"type":"Point","coordinates":[126.6923315,37.4579883]},"properties":{"facility_name":"연세재활주야간보호센터","district_scope_20260701":"미추홀구","district_assignment_status":"exact_unchanged_district_name","legal_dong_general":"주안동","category_major":"노인복지","public_service_category":"주간 돌봄","source_as_of_date_latest":"2026-06-30","public_facility_id":"public_facility_0139"}},{"type":"Feature","geometry":{"type":"Point","coordinates":[126.6467421,37.4639918]},"properties":{"facility_name":"케어블 커뮤니티케어 인천 미추홀점","district_scope_20260701":"미추홀구","district_assignment_status":"exact_unchanged_district_name","legal_dong_general":"숭의동","category_major":"노인복지","public_service_category":"주간 돌봄","source_as_of_date_latest":"2026-06-30","public_facility_id":"public_facility_0140"}},{"type":"Feature","geometry":{"type":"Point","coordinates":[126.6694258,37.4452671]},"properties":{"facility_name":"학익주야간보호센터","district_scope_20260701":"미추홀구","district_assignment_status":"exact_unchanged_district_name","legal_dong_general":"학익동","category_major":"노인복지","public_service_category":"주간 돌봄","source_as_of_date_latest":"2026-06-30","public_facility_id":"public_facility_0141"}},{"type":"Feature","geometry":{"type":"Point","coordinates":[126.6798378,37.4605274]},"properties":{"facility_name":"한방재활주간보호센터","district_scope_20260701":"미추홀구","district_assignment_status":"exact_unchanged_district_name","legal_dong_general":"주안동","category_major":"노인복지","public_service_category":"주간 돌봄","source_as_of_date_latest":"2026-06-30","public_facility_id":"public_facility_0142"}},{"type":"Feature","geometry":{"type":"Point","coordinates":[126.6792217,37.4638502]},"properties":{"facility_name":"행복드림 어르신주야간보호센터","district_scope_20260701":"미추홀구","district_assignment_status":"exact_unchanged_district_name","legal_dong_general":"주안동","category_major":"노인복지","public_service_category":"주간 돌봄","source_as_of_date_latest":"2026-06-30","public_facility_id":"public_facility_0143"}},{"type":"Feature","geometry":{"type":"Point","coordinates":[126.6754812,37.4596616]},"properties":{"facility_name":"효담채주야간보호센터","district_scope_20260701":"미추홀구","district_assignment_status":"exact_unchanged_district_name","legal_dong_general":"도화동","category_major":"노인복지","public_service_category":"주간 돌봄","source_as_of_date_latest":"2026-06-30","public_facility_id":"public_facility_0144"}},{"type":"Feature","geometry":{"type":"Point","coordinates":[126.6825809,37.4642265]},"properties":{"facility_name":"힘찬재활주간보호센터","district_scope_20260701":"미추홀구","district_assignment_status":"exact_unchanged_district_name","legal_dong_general":"주안동","category_major":"노인복지","public_service_category":"주간 돌봄","source_as_of_date_latest":"2026-06-30","public_facility_id":"public_facility_0145"}},{"type":"Feature","geometry":{"type":"Point","coordinates":[126.688837,37.418596]},"properties":{"facility_name":"경인의료재활센터병원","district_scope_20260701":"연수구","district_assignment_status":"exact_unchanged_district_name","legal_dong_general":"연수동","category_major":"장애인복지","public_service_category":"장애인 지역사회 서비스","source_as_of_date_latest":"2026-03-09","public_facility_id":"public_facility_0146"}},{"type":"Feature","geometry":{"type":"Point","coordinates":[126.651085,37.422973]},"properties":{"facility_name":"연수구장애인주간보호센터","district_scope_20260701":"연수구","district_assignment_status":"exact_unchanged_district_name","legal_dong_general":"옥련동","category_major":"장애인복지","public_service_category":"장애인 지역사회 서비스","source_as_of_date_latest":"2026-03-09","public_facility_id":"public_facility_0147"}},{"type":"Feature","geometry":{"type":"Point","coordinates":[126.661116,37.412465]},"properties":{"facility_name":"인천장애인복지관","district_scope_20260701":"연수구","district_assignment_status":"exact_unchanged_district_name","legal_dong_general":"동춘동","category_major":"장애인복지","public_service_category":"장애인 지역사회 서비스","source_as_of_date_latest":"2026-03-09","public_facility_id":"public_facility_0148"}},{"type":"Feature","geometry":{"type":"Point","coordinates":[126.661116,37.412465]},"properties":{"facility_name":"해내기주간보호센터","district_scope_20260701":"연수구","district_assignment_status":"exact_unchanged_district_name","legal_dong_general":"동춘동","category_major":"장애인복지","public_service_category":"장애인 지역사회 서비스","source_as_of_date_latest":"2026-03-09","public_facility_id":"public_facility_0149"}},{"type":"Feature","geometry":{"type":"Point","coordinates":[126.6847071,37.4168039]},"properties":{"facility_name":"다가치보호작업장","district_scope_20260701":"연수구","district_assignment_status":"exact_unchanged_district_name","legal_dong_general":"","category_major":"장애인복지","public_service_category":"장애인 직업재활","source_as_of_date_latest":"2026-03-09","public_facility_id":"public_facility_0150"}},{"type":"Feature","geometry":{"type":"Point","coordinates":[126.661116,37.412465]},"properties":{"facility_name":"해내기보호작업장","district_scope_20260701":"연수구","district_assignment_status":"exact_unchanged_district_name","legal_dong_general":"동춘동","category_major":"장애인복지","public_service_category":"장애인 직업재활","source_as_of_date_latest":"2026-03-09","public_facility_id":"public_facility_0151"}}]}
